ONEWEB-0207             
1 48242U 21031AJ  26026.75134877 -.00000168  00000+0 -48639-3 0  9994
2 48242  87.9033 317.8834 0001974  81.6921 278.4433 13.14502199229711
ONEWEB-0208             
1 48243U 21031AK  26026.73310675 -.00000152  00000+0 -44505-3 0  9996
2 48243  87.9029 317.9003 0001520  87.6405 272.4899 13.14502206229726
ONEWEB-0200             
1 48244U 21031AL  26026.77274667 -.00000225  00000+0 -64006-3 0  9990
2 48244  87.9031 317.8812 0001744  81.6993 278.4334 13.14502704229656
ONEWEB-0217             
1 48245U 21031AM  26026.78861178  .00000218  00000+0  55343-3 0  9995
2 48245  87.9035 317.8763 0001570  89.1289 271.0021 13.14501854229606
ONEWEB-0211             
1 48767U 21045A   26026.25951057  .00001145  00000+0  29817-2 0  9993
2 48767  87.9003 287.4440 0001410  69.5210 290.6072 13.16135375225773
ONEWEB-0223             
1 48768U 21045B   26026.42240908 -.00000097  00000+0 -29041-3 0  9996
2 48768  87.9005 287.4840 0001106  74.4039 285.7213 13.15548362225760
ONEWEB-0230             
1 48769U 21045C   26026.69810902 -.00000006  00000+0 -50222-4 0  9999
2 48769  87.8991 287.4562 0001678  76.0870 284.0447 13.15547615226065
ONEWEB-0237             
1 48770U 21045D   26026.68701397 -.00000120  00000+0 -35368-3 0  9997
2 48770  87.8993 287.4589 0001329  70.4187 289.7087 13.15547906225783
